{"fetched_at":"2026-03-29T02:12:04Z","count":15717,"tles":[{"name":"TIANYI A","line1":"1 64048U 25103A   26087.48711679  .00000776  00000+0  40069-4 0  9991","line2":"2 64048  97.4117 161.5495 0001652  86.8370 273.3054 15.19176236 47826","category":"Other"}]}