{
  "norad_id": 64048,
  "name": "TIANYI A",
  "history": [
    {
      "epoch": "2026-03-28T11:41:26.890656Z",
      "apogee_km": 509.4667694321488,
      "perigee_km": 507.19106790466594,
      "latitude_deg": 3.7421678020829395e-05,
      "longitude_deg": 160.28059077641353,
      "height_km": 511.3525276060928,
      "semi_major_axis_km": 6886.4659186684075,
      "eccentricity": 0.00016523,
      "inclination_deg": 97.4117,
      "raan_deg": 161.5495,
      "arg_perigee_deg": 86.837,
      "mean_anomaly_deg": 273.3054,
      "mean_motion_rev_day": 15.19176236
    }
  ]
}